{"type": "FeatureCollection", "features": [ {"type": "Feature", "properties": {"norad_id": 45358, "name": "COSMOS 2545 (760)", "group": "glo-ops", "lat": 8.32645168781096, "lon": 134.43875128336742, "alt_km": 19124.300936264422, "timestamp": "2025-12-27T05:29:39.464236+00:00", "meta": {"OBJECT_NAME": "COSMOS 2545 (760)", "OBJECT_ID": "2020-018A", "EPOCH": "2025-12-26T01:37:18.289920", "MEAN_MOTION": 2.13102654, "ECCENTRICITY": 0.0011278, "INCLINATION": 64.4616, "RA_OF_ASC_NODE": 318.5028, "ARG_OF_PERICENTER": 250.7597, "MEAN_ANOMALY": 109.1229, "EPHEMERIS_TYPE": 0, "CLASSIFICATION_TYPE": "U", "NORAD_CAT_ID": 45358, "ELEMENT_SET_NO": 999, "REV_AT_EPOCH": 4497, "BSTAR": 0, "MEAN_MOTION_DOT": -3.5e-07, "MEAN_MOTION_DDOT": 0}, "tle": {"line1": "1 45358U 20018A   25360.06757280 -.00000035  00000+0  00000+0 0  9994", "line2": "2 45358  64.4616 318.5028 0011278 250.7597 109.1229  2.13102654 44977"}}, "geometry": {"type": "Point", "coordinates": [134.43875128336742, 8.32645168781096]}}, {"type": "Feature", "properties": {"norad_id": 46805, "name": "COSMOS 2547 (705K)", "group": "glo-ops", "lat": 23.819209115639445, "lon": -149.6704085695406, "alt_km": 19141.96499622517, "timestamp": "2025-12-27T05:29:39.464248+00:00", "meta": {"OBJECT_NAME": "COSMOS 2547 (705K)", "OBJECT_ID": "2020-075A", "EPOCH": "2025-12-26T17:24:00.984960", "MEAN_MOTION": 2.13100163, "ECCENTRICITY": 0.00061039, "INCLINATION": 64.597, "RA_OF_ASC_NODE": 198.2292, "ARG_OF_PERICENTER": 227.5593, "MEAN_ANOMALY": 132.4439, "EPHEMERIS_TYPE": 0, "CLASSIFICATION_TYPE": "U", "NORAD_CAT_ID": 46805, "ELEMENT_SET_NO": 999, "REV_AT_EPOCH": 4023, "BSTAR": 0, "MEAN_MOTION_DOT": 1.16e-06, "MEAN_MOTION_DDOT": 0}, "tle": {"line1": "1 46805U 20075A   25360.72501140  .00000116  00000+0  00000+0 0  9999", "line2": "2 46805  64.5970 198.2292 0006103 227.5593 132.4439  2.13100163 40234"}}, "geometry": {"type": "Point", "coordinates": [-149.6704085695406, 23.819209115639445]}}, {"type": "Feature", "properties": {"norad_id": 52984, "name": "COSMOS 2557 (706K)", "group": "glo-ops", "lat": -62.52808165886158, "lon": -152.34101760250147, "alt_km": 19103.687805364312, "timestamp": "2025-12-27T05:29:39.464259+00:00", "meta": {"OBJECT_NAME": "COSMOS 2557 (706K)", "OBJECT_ID": "2022-075A", "EPOCH": "2025-12-25T22:50:27.414816", "MEAN_MOTION": 2.13102015, "ECCENTRICITY": 0.00135372, "INCLINATION": 64.4024, "RA_OF_ASC_NODE": 320.5875, "ARG_OF_PERICENTER": 278.4992, "MEAN_ANOMALY": 81.3515, "EPHEMERIS_TYPE": 0, "CLASSIFICATION_TYPE": "U", "NORAD_CAT_ID": 52984, "ELEMENT_SET_NO": 999, "REV_AT_EPOCH": 2702, "BSTAR": 0, "MEAN_MOTION_DOT": -3.5e-07, "MEAN_MOTION_DDOT": 0}, "tle": {"line1": "1 52984U 22075A   25359.95170619 -.00000035  00000+0  00000+0 0  9993", "line2": "2 52984  64.4024 320.5875 0013537 278.4992  81.3515  2.13102015 27029"}}, "geometry": {"type": "Point", "coordinates": [-152.34101760250147, -62.52808165886158]}}, {"type": "Feature", "properties": {"norad_id": 54031, "name": "COSMOS 2559 (707K)", "group": "glo-ops", "lat": 34.099591968291456, "lon": -20.431330583723486, "alt_km": 19152.066531001125, "timestamp": "2025-12-27T05:29:39.464270+00:00", "meta": {"OBJECT_NAME": "COSMOS 2559 (707K)", "OBJECT_ID": "2022-130A", "EPOCH": "2025-12-26T05:45:52.034112", "MEAN_MOTION": 2.13101192, "ECCENTRICITY": 0.0011465, "INCLINATION": 64.3745, "RA_OF_ASC_NODE": 320.6663, "ARG_OF_PERICENTER": 191.5639, "MEAN_ANOMALY": 168.4144, "EPHEMERIS_TYPE": 0, "CLASSIFICATION_TYPE": "U", "NORAD_CAT_ID": 54031, "ELEMENT_SET_NO": 999, "REV_AT_EPOCH": 2500, "BSTAR": 0, "MEAN_MOTION_DOT": -3.6e-07, "MEAN_MOTION_DDOT": 0}, "tle": {"line1": "1 54031U 22130A   25360.24018558 -.00000036  00000+0  00000+0 0  9998", "line2": "2 54031  64.3745 320.6663 0011465 191.5639 168.4144  2.13101192 25006"}}, "geometry": {"type": "Point", "coordinates": [-20.431330583723486, 34.099591968291456]}}, {"type": "Feature", "properties": {"norad_id": 54377, "name": "COSMOS 2564 (761)", "group": "glo-ops", "lat": 19.730438793373413, "lon": 8.667842971363203, "alt_km": 19112.52489645213, "timestamp": "2025-12-27T05:29:39.464281+00:00", "meta": {"OBJECT_NAME": "COSMOS 2564 (761)", "OBJECT_ID": "2022-161A", "EPOCH": "2025-12-26T13:17:06.645696", "MEAN_MOTION": 2.13101966, "ECCENTRICITY": 0.0008542, "INCLINATION": 64.7391, "RA_OF_ASC_NODE": 198.4399, "ARG_OF_PERICENTER": 203.4859, "MEAN_ANOMALY": 156.5301, "EPHEMERIS_TYPE": 0, "CLASSIFICATION_TYPE": "U", "NORAD_CAT_ID": 54377, "ELEMENT_SET_NO": 999, "REV_AT_EPOCH": 2395, "BSTAR": 0, "MEAN_MOTION_DOT": 1.15e-06, "MEAN_MOTION_DDOT": 0}, "tle": {"line1": "1 54377U 22161A   25360.55354914  .00000115  00000+0  00000+0 0  9995", "line2": "2 54377  64.7391 198.4399 0008542 203.4859 156.5301  2.13101966 23950"}}, "geometry": {"type": "Point", "coordinates": [8.667842971363203, 19.730438793373413]}}, {"type": "Feature", "properties": {"norad_id": 57517, "name": "COSMOS 2569 (703K)", "group": "glo-ops", "lat": 28.970375151903703, "lon": -116.37429988165583, "alt_km": 19147.780455704768, "timestamp": "2025-12-27T05:29:39.464292+00:00", "meta": {"OBJECT_NAME": "COSMOS 2569 (703K)", "OBJECT_ID": "2023-114A", "EPOCH": "2025-12-26T02:20:34.905408", "MEAN_MOTION": 2.13103952, "ECCENTRICITY": 0.00110098, "INCLINATION": 65.2009, "RA_OF_ASC_NODE": 78.4621, "ARG_OF_PERICENTER": 287.2132, "MEAN_ANOMALY": 72.7147, "EPHEMERIS_TYPE": 0, "CLASSIFICATION_TYPE": "U", "NORAD_CAT_ID": 57517, "ELEMENT_SET_NO": 999, "REV_AT_EPOCH": 1857, "BSTAR": 0, "MEAN_MOTION_DOT": -5e-08, "MEAN_MOTION_DDOT": 0}, "tle": {"line1": "1 57517U 23114A   25360.09762622 -.00000005  00000+0  00000+0 0  9990", "line2": "2 57517  65.2009  78.4621 0011009 287.2132  72.7147  2.13103952 18578"}}, "geometry": {"type": "Point", "coordinates": [-116.37429988165583, 28.970375151903703]}}, {"type": "Feature", "properties": {"norad_id": 63130, "name": "COSMOS 2584 (704K)", "group": "glo-ops", "lat": -47.83982782715941, "lon": -70.34091116925012, "alt_km": 19116.21737978968, "timestamp": "2025-12-27T05:29:39.464303+00:00", "meta": {"OBJECT_NAME": "COSMOS 2584 (704K)", "OBJECT_ID": "2025-042A", "EPOCH": "2025-12-24T02:34:25.549824", "MEAN_MOTION": 2.13102981, "ECCENTRICITY": 0.00077651, "INCLINATION": 64.9819, "RA_OF_ASC_NODE": 78.7588, "ARG_OF_PERICENTER": 220.6893, "MEAN_ANOMALY": 139.3012, "EPHEMERIS_TYPE": 0, "CLASSIFICATION_TYPE": "U", "NORAD_CAT_ID": 63130, "ELEMENT_SET_NO": 999, "REV_AT_EPOCH": 631, "BSTAR": 0, "MEAN_MOTION_DOT": 1e-08, "MEAN_MOTION_DDOT": 0}, "tle": {"line1": "1 63130U 25042A   25358.10724016  .00000001  00000+0  00000+0 0  9999", "line2": "2 63130  64.9819  78.7588 0007765 220.6893 139.3012  2.13102981  6316"}}, "geometry": {"type": "Point", "coordinates": [-70.34091116925012, -47.83982782715941]}}, {"type": "Feature", "properties": {"norad_id": 65590, "name": "COSMOS 2596 (708K)", "group": "glo-ops", "lat": -6.0603276328193285, "lon": -41.913321325454575, "alt_km": 19106.24861607882, "timestamp": "2025-12-27T05:29:39.464314+00:00", "meta": {"OBJECT_NAME": "COSMOS 2596 (708K)", "OBJECT_ID": "2025-206B", "EPOCH": "2025-12-26T12:49:29.791776", "MEAN_MOTION": 2.13100157, "ECCENTRICITY": 0.0014063, "INCLINATION": 64.7367, "RA_OF_ASC_NODE": 320.9961, "ARG_OF_PERICENTER": 307.6587, "MEAN_ANOMALY": 232.6923, "EPHEMERIS_TYPE": 0, "CLASSIFICATION_TYPE": "U", "NORAD_CAT_ID": 65590, "ELEMENT_SET_NO": 999, "REV_AT_EPOCH": 223, "BSTAR": 0, "MEAN_MOTION_DOT": -3.6e-07, "MEAN_MOTION_DDOT": 0}, "tle": {"line1": "1 65590U 25206B   25360.53437259 -.00000036  00000+0  00000+0 0  9992", "line2": "2 65590  64.7367 320.9961 0014063 307.6587 232.6923  2.13100157  2234"}}, "geometry": {"type": "Point", "coordinates": [-41.913321325454575, -6.0603276328193285]}}]}